STARLINK-34418          
1 64461U 25130Z   26068.45113260  .00031598  00000+0  10745-2 0  9990
2 64461  53.1597  89.8429 0001291  79.0481 281.0665 15.30198272 40667
KUIPER-00222            
1 67782U 26030U   26068.67636257  .00055223  00000+0  17317-2 0  9992
2 67782  51.8817 219.7147 0012800  40.1845 320.0084 15.32445377  5087
